OSCAR 7 (AO-7)          
1 07530U 74089B   26196.56642186 -.00000033  00000+0  81816-4 0  9999
2 07530 101.9906 210.1087 0012659  77.6753  53.4398 12.53698596364076
PHASE 3B (AO-10)        
1 14129U 83058B   26194.10401075 -.00000187  00000+0  00000+0 0  9996
2 14129  25.9345 215.2934 6002223 122.7887 309.2966  2.05872336296023
UOSAT 2 (UO-11)         
1 14781U 84021B   26196.88103810  .00000507  00000+0  57146-4 0  9997
2 14781  97.8076 162.1394 0009246  89.5955 270.6323 14.90849797261402
LUSAT (LO-19)           
1 20442U 90005G   26196.29868066  .00000038  00000+0  30320-4 0  9997
2 20442  98.8847 218.8780 0012544 121.1187 239.1229 14.34130762906429
EYESAT A (AO-27)        
1 22825U 93061C   26196.73849277  .00000042  00000+0  32983-4 0  9993
2 22825  98.6868 264.1397 0008734  24.3720 335.7874 14.30949162711081
ITAMSAT (IO-26)         
1 22826U 93061D   26196.77928505  .00000043  00000+0  32967-4 0  9993
2 22826  98.6815 264.1008 0008927   7.7103 352.4216 14.31376772711401
RADIO ROSTO (RS15)      
1 23439U 94085A   26196.85124532 -.00000039  00000+0  99136-4 0  9995
2 23439  64.8150 256.8596 0156942 358.5901   1.4561 11.27583522299133
JAS-2 (FO-29)           
1 24278U 96046B   26196.55347070  .00000004  00000+0  39317-4 0  9993
2 24278  98.5219  41.5371 0350345  23.0121 338.6291 13.53275706477008
TECHSAT 1B (GO-32)      
1 25397U 98043D   26196.86396539  .00000002  00000+0  21072-4 0  9990
2 25397  99.0086 190.3481 0002199 113.5643 246.5766 14.24433417455418
ISS (ZARYA)             
1 25544U 98067A   26196.76640667  .00004078  00000+0  82095-4 0  9992
2 25544  51.6311 158.6576 0006719 300.0875  59.9447 15.49019038576188
PCSAT (NO-44)           
1 26931U 01043C   26196.65613856  .00000014  00000+0  36081-4 0  9999
2 26931  67.0495 170.6372 0005919 266.7273  93.3152 14.31965117294520
SAUDISAT 1C (SO-50)     
1 27607U 02058C   26196.74605781  .00000379  00000+0  62723-4 0  9991
2 27607  64.5518  40.6207 0074514 257.1595 102.1179 14.83099068268697
CUTE-1 (CO-55)          
1 27844U 03031E   26196.48745324  .00000133  00000+0  76487-4 0  9995
2 27844  98.6744 204.6909 0010836 101.9513 258.2882 14.24351670195703
CUBESAT XI-IV (CO-57)   
1 27848U 03031J   26196.49013580  .00000112  00000+0  68039-4 0  9993
2 27848  98.6774 204.3834 0010557 118.6468 241.5773 14.23634657195407
MOZHAETS 4 (RS22)       
1 27939U 03042A   26196.88307853  .00000387  00000+0  67815-4 0  9993
2 27939  98.3467  22.0541 0011258 171.1036 326.3276 14.73514816219774
CUBESAT XI-V            
1 28895U 05043F   26196.39580506  .00000649  00000+0  10993-3 0  9997
2 28895  98.3015 352.6157 0015254 114.6608 245.6189 14.72702525105907
CUTE-1.7+APD II (CO-65) 
1 32785U 08021C   26196.88379784  .00002631  00000+0  16739-3 0  9994
2 32785  97.8294 178.9074 0006956 296.6909  63.3606 15.09705057989525
SEEDS II (CO-66)        
1 32791U 08021J   26196.52520748  .00011174  00000+0  34561-3 0  9995
2 32791  97.7522 195.7974 0003105 155.6560 204.4829 15.33674625991634
YUBILEINY (RS30)        
1 32953U 08025A   26196.82913568 -.00000020  00000+0 -21606-3 0  9994
2 32953  82.5058 337.6219 0018605 247.5034 112.4077 12.43180618823254
KKS-1 (KISEKI)          
1 33499U 09002H   26196.72667141  .00000606  00000+0  81011-4 0  9993
2 33499  98.1173 119.6211 0007474 187.1022 173.0086 14.83190035940421
SWISSCUBE               
1 35932U 09051B   26195.74040393  .00000468  00000+0  10206-3 0  9999
2 35932  98.4008 104.1063 0007823 120.2894 239.9082 14.62530263893188
BEESAT-1                
1 35933U 09051C   26196.31185738  .00000377  00000+0  85523-4 0  9991
2 35933  98.3935 104.2639 0006132 129.5089 230.6654 14.61761931893299
ITUPSAT1                
1 35935U 09051E   26196.19038705  .00000349  00000+0  82054-4 0  9995
2 35935  98.4018 103.3025 0008086 143.1681 217.0076 14.60478742892822
XIWANG-1 (HOPE-1)       
1 36122U 09072B   26196.89554671  .00000016  00000+0  15800-3 0  9994
2 36122 100.4038 150.2713 0007552 163.2346 196.9018 13.16440785796785
O/OREOS (USA 219)       
1 37224U 10062C   26196.52320281  .00001054  00000+0  10509-3 0  9991
2 37224  71.9698  16.1455 0013971   4.4309 355.6982 14.93852551120872
JUGNU                   
1 37839U 11058B   26196.03820900  .00000342  00000+0  39232-4 0  9992
2 37839  19.9594 139.2172 0018562  24.7595  57.8710 14.13783475762970
SRMSAT                  
1 37841U 11058D   26196.43842265  .00000333  00000+0  37014-4 0  9993
2 37841  19.9710 248.4743 0011765 153.8769 331.6515 14.11581130761815
STRAND-1                
1 39090U 13009E   26196.74002714  .00000123  00000+0  55624-4 0  9994
2 39090  98.3935  16.2735 0009437 139.6200 220.5689 14.37179078701162
ZACUBE-1 (TSHEPISOSAT)  
1 39417U 13066B   26196.86778602  .00001228  00000+0  98374-4 0  9995
2 39417  97.8008 159.3459 0044051 153.0544 207.2981 15.01330535685037
GOMX-1                  
1 39430U 13066Q   26196.78402047  .00000701  00000+0  11195-3 0  9998
2 39430  97.6466  35.4421 0128200 346.3187  13.4557 14.69543634674112
